0 TITAN 3C TRANSTAGE R/B
1 02222U 66053J   13281.41948058 -.00000093  00000-0  10000-3 0  2958
2 02222 000.7657 336.8843 0168771 142.7952 242.0304 01.06720348 81049
0 TITAN 3C TRANSTAGE R/B
1 02222U 66053J   13284.23047079 -.00000199  00000-0  10000-3 0  2962
2 02222 000.7643 337.2665 0168777 142.4610 241.9774 01.06721362 81074
0 TITAN 3C TRANSTAGE R/B
1 02222U 66053J   13287.04146481 -.00000133  00000-0  10000-3 0  2970
2 02222 000.7628 337.4096 0168728 142.3837 241.9046 01.06720290 81108
0 TITAN 3C TRANSTAGE R/B
1 02222U 66053J   13289.79648961  .00000000  00000-0  10000-3 0  3001
2 02222 000.7621 340.3829 0168242 139.5497 220.2462 01.06717563 81122
0 TITAN 3C TRANSTAGE R/B
1 02222U 66053J   13289.85248824 -.00000164  00000-0  10000-3 0  2980
2 02222 000.7618 337.5351 0168745 142.3148 241.8457 01.06720651 81135
0 TITAN 3C TRANSTAGE R/B
1 02222U 66053J   13291.72649271 -.00000240  00000-0  10000-3 0  2996
2 02222 000.7622 338.0895 0168652 141.8178 241.7883 01.06721477 81154
0 TITAN 3C TRANSTAGE R/B
1 02222U 66053J   13294.53750785 -.00000130  00000-0  10000-3 0  3002
2 02222 000.7612 338.3733 0168424 141.6131 241.7103 01.06720112 81184
